[{"postcode":"4000","suburb":"Brisbane Adelaide Street","state":"QLD","latitude":"-27.454","longitude":"153.0426"},{"postcode":"4000","suburb":"Petrie Terrace","state":"QLD","latitude":"-27.463","longitude":"153.0131"},{"postcode":"4000","suburb":"Brisbane City","state":"QLD","latitude":"-27.4679","longitude":"153.0281"},{"postcode":"4000","suburb":"Brisbane GPO","state":"QLD","latitude":"-27.4651","longitude":"153.0231"},{"postcode":"4000","suburb":"Spring Hill","state":"QLD","latitude":"-27.4614","longitude":"153.0231"},{"postcode":"4000","suburb":"Brisbane","state":"QLD","latitude":"-27.4679","longitude":"153.0281"},{"postcode":"4001","suburb":"Riverside Centre","state":"QLD","latitude":"-27.5","longitude":"153.0167"},{"postcode":"4001","suburb":"Waterfront Place","state":"QLD","latitude":"-27.5","longitude":"153.0167"},{"postcode":"4001","suburb":"Central Plaza","state":"QLD","latitude":"-27.5","longitude":"153.0167"},{"postcode":"4001","suburb":"Brisbane","state":"QLD","latitude":"-27.4679","longitude":"153.0281"},{"postcode":"4002","suburb":"Wintergarden","state":"QLD","latitude":"-27.454","longitude":"153.0426"},{"postcode":"4002","suburb":"City East","state":"QLD","latitude":"-27.454","longitude":"153.0426"},{"postcode":"4003","suburb":"George Street","state":"QLD","latitude":"-27.454","longitude":"153.0426"},{"postcode":"4004","suburb":"Spring Hill","state":"QLD","latitude":"-27.4614","longitude":"153.0231"},{"postcode":"4005","suburb":"Teneriffe","state":"QLD","latitude":"-27.4559","longitude":"153.047"},{"postcode":"4005","suburb":"New Farm","state":"QLD","latitude":"-27.4667","longitude":"153.05"},{"postcode":"4006","suburb":"Fortitude Valley BC","state":"QLD","latitude":"-27.4473","longitude":"153.032"},{"postcode":"4006","suburb":"Fortitude Valley","state":"QLD","latitude":"-27.4571","longitude":"153.0318"},{"postcode":"4006","suburb":"Bowen Hills","state":"QLD","latitude":"-27.4432","longitude":"153.0302"},{"postcode":"4006","suburb":"Newstead","state":"QLD","latitude":"-27.4436","longitude":"153.0443"},{"postcode":"4006","suburb":"Herston","state":"QLD","latitude":"-27.4445","longitude":"153.0185"},{"postcode":"4007","suburb":"Hamilton Central","state":"QLD","latitude":"-27.4417","longitude":"153.0667"},{"postcode":"4007","suburb":"Hamilton","state":"QLD","latitude":"-27.439","longitude":"153.0629"},{"postcode":"4007","suburb":"Ascot","state":"QLD","latitude":"-27.4315","longitude":"153.058"},{"postcode":"4008","suburb":"Brisbane Airport","state":"QLD","latitude":"-27.3947","longitude":"153.114"},{"postcode":"4008","suburb":"Pinkenba","state":"QLD","latitude":"-27.428","longitude":"153.1167"},{"postcode":"4009","suburb":"Eagle Farm BC","state":"QLD","latitude":"-27.4306","longitude":"153.0906"},{"postcode":"4009","suburb":"Eagle Farm","state":"QLD","latitude":"-27.4333","longitude":"153.0833"},{"postcode":"4010","suburb":"Albion BC","state":"QLD","latitude":"-27.4301","longitude":"153.0379"},{"postcode":"4010","suburb":"Albion DC","state":"QLD","latitude":"-27.4301","longitude":"153.0379"},{"postcode":"4010","suburb":"Albion","state":"QLD","latitude":"-27.4301","longitude":"153.0379"},{"postcode":"4011","suburb":"Clayfield","state":"QLD","latitude":"-27.4189","longitude":"153.0582"},{"postcode":"4011","suburb":"Hendra","state":"QLD","latitude":"-27.4177","longitude":"153.0703"},{"postcode":"4012","suburb":"Wavell Heights North","state":"QLD","latitude":"-27.3974","longitude":"153.0546"},{"postcode":"4012","suburb":"Wavell Heights","state":"QLD","latitude":"-27.3938","longitude":"153.047"},{"postcode":"4012","suburb":"Toombul","state":"QLD","latitude":"-27.4096","longitude":"153.0584"},{"postcode":"4012","suburb":"Nundah","state":"QLD","latitude":"-27.4025","longitude":"153.0617"},{"postcode":"4013","suburb":"Northgate","state":"QLD","latitude":"-27.4","longitude":"153.0667"},{"postcode":"4014","suburb":"Virginia BC","state":"QLD","latitude":"-27.3783","longitude":"153.0768"},{"postcode":"4014","suburb":"Virginia DC","state":"QLD","latitude":"-27.3783","longitude":"153.0768"},{"postcode":"4014","suburb":"Virginia","state":"QLD","latitude":"-27.3833","longitude":"153.0667"},{"postcode":"4014","suburb":"Nudgee","state":"QLD","latitude":"-27.3691","longitude":"153.0847"},{"postcode":"4014","suburb":"Banyo","state":"QLD","latitude":"-27.3824","longitude":"153.079"},{"postcode":"4018","suburb":"Fitzgibbon","state":"QLD","latitude":"-27.3397","longitude":"153.0292"},{"postcode":"4018","suburb":"Taigum","state":"QLD","latitude":"-27.3426","longitude":"153.0444"},{"postcode":"4030","suburb":"Wooloowin","state":"QLD","latitude":"-27.4224","longitude":"153.042"},{"postcode":"4030","suburb":"Lutwyche","state":"QLD","latitude":"-27.4227","longitude":"153.0335"},{"postcode":"4030","suburb":"Windsor","state":"QLD","latitude":"-27.4363","longitude":"153.0288"},{"postcode":"4031","suburb":"Gordon Park","state":"QLD","latitude":"-27.419","longitude":"153.0255"},{"postcode":"4031","suburb":"Kedron","state":"QLD","latitude":"-27.4029","longitude":"153.0297"},{"postcode":"4032","suburb":"Chermside Centre","state":"QLD","latitude":"-27.3847","longitude":"153.0306"},{"postcode":"4032","suburb":"Chermside South","state":"QLD","latitude":"-27.3847","longitude":"153.0306"},{"postcode":"4032","suburb":"Chermside West","state":"QLD","latitude":"-27.3838","longitude":"153.0159"},{"postcode":"4032","suburb":"Chermside","state":"QLD","latitude":"-27.3847","longitude":"153.0306"},{"postcode":"4034","suburb":"Carseldine","state":"QLD","latitude":"-27.3475","longitude":"153.0231"},{"postcode":"4034","suburb":"Boondall","state":"QLD","latitude":"-27.3532","longitude":"153.0609"},{"postcode":"4034","suburb":"Zillmere","state":"QLD","latitude":"-27.3559","longitude":"153.0445"},{"postcode":"4034","suburb":"Geebung","state":"QLD","latitude":"-27.3725","longitude":"153.0471"},{"postcode":"4034","suburb":"Aspley","state":"QLD","latitude":"-27.3667","longitude":"153.0167"},{"postcode":"4035","suburb":"Bridgeman Downs","state":"QLD","latitude":"-27.353","longitude":"152.9817"},{"postcode":"4035","suburb":"Albany Creek","state":"QLD","latitude":"-27.35","longitude":"152.9833"},{"postcode":"4051","suburb":"Gaythorne","state":"QLD","latitude":"-27.4167","longitude":"152.9833"},{"postcode":"4051","suburb":"Newmarket","state":"QLD","latitude":"-27.4333","longitude":"153.0167"},{"postcode":"4051","suburb":"Alderley","state":"QLD","latitude":"-27.4255","longitude":"153.001"},{"postcode":"4051","suburb":"Enoggera","state":"QLD","latitude":"-27.4283","longitude":"152.9747"},{"postcode":"4051","suburb":"Wilston","state":"QLD","latitude":"-27.4322","longitude":"153.019"},{"postcode":"4051","suburb":"Grange","state":"QLD","latitude":"-27.4225","longitude":"153.0153"},{"postcode":"4053","suburb":"Brookside Centre","state":"QLD","latitude":"-27.4155","longitude":"152.9766"},{"postcode":"4053","suburb":"Stafford Heights","state":"QLD","latitude":"-27.3935","longitude":"153.0105"},{"postcode":"4053","suburb":"Everton Hills","state":"QLD","latitude":"-27.3891","longitude":"152.9713"},{"postcode":"4053","suburb":"Everton Park","state":"QLD","latitude":"-27.4073","longitude":"152.9884"},{"postcode":"4053","suburb":"Stafford DC","state":"QLD","latitude":"-27.3961","longitude":"152.9766"},{"postcode":"4053","suburb":"Mitchelton","state":"QLD","latitude":"-27.4167","longitude":"152.9667"},{"postcode":"4053","suburb":"Mcdowall","state":"QLD","latitude":"-27.3827","longitude":"152.9919"},{"postcode":"4053","suburb":"Stafford","state":"QLD","latitude":"-27.4104","longitude":"153.0111"},{"postcode":"4054","suburb":"Arana Hills","state":"QLD","latitude":"-27.3981","longitude":"152.958"},{"postcode":"4054","suburb":"Keperra","state":"QLD","latitude":"-27.4138","longitude":"152.947"},{"postcode":"4055","suburb":"Ferny Hills DC","state":"QLD","latitude":"-27.3963","longitude":"152.9319"},{"postcode":"4055","suburb":"Upper Kedron","state":"QLD","latitude":"-27.4188","longitude":"152.9178"},{"postcode":"4055","suburb":"Ferny Grove","state":"QLD","latitude":"-27.4008","longitude":"152.9348"},{"postcode":"4055","suburb":"Ferny Hills","state":"QLD","latitude":"-27.3959","longitude":"152.9374"},{"postcode":"4055","suburb":"Bunya","state":"QLD","latitude":"-27.3694","longitude":"152.9433"},{"postcode":"4059","suburb":"Kelvin Grove Bc","state":"QLD","latitude":"-27.4507","longitude":"153.007"},{"postcode":"4059","suburb":"Kelvin Grove Dc","state":"QLD","latitude":"-27.4507","longitude":"153.007"},{"postcode":"4059","suburb":"Kelvin Grove","state":"QLD","latitude":"-27.4482","longitude":"153.0134"},{"postcode":"4059","suburb":"Red Hill","state":"QLD","latitude":"-27.4525","longitude":"153.0021"},{"postcode":"4060","suburb":"Ashgrove East","state":"QLD","latitude":"-27.4455","longitude":"152.992"},{"postcode":"4060","suburb":"Dorrington","state":"QLD","latitude":"-27.4425","longitude":"152.9864"},{"postcode":"4060","suburb":"Ashgrove","state":"QLD","latitude":"-27.4455","longitude":"152.992"},{"postcode":"4061","suburb":"The Gap","state":"QLD","latitude":"-27.4419","longitude":"152.9386"},{"postcode":"4064","suburb":"Paddington","state":"QLD","latitude":"-27.4594","longitude":"152.9951"},{"postcode":"4064","suburb":"Milton BC","state":"QLD","latitude":"-27.4649","longitude":"152.9991"},{"postcode":"4064","suburb":"Milton","state":"QLD","latitude":"-27.4704","longitude":"153.0031"},{"postcode":"4065","suburb":"Bardon","state":"QLD","latitude":"-27.461","longitude":"152.9792"},{"postcode":"4066","suburb":"Mount Coot-Tha","state":"QLD","latitude":"-27.4868","longitude":"152.9592"},{"postcode":"4066","suburb":"Auchenflower","state":"QLD","latitude":"-27.4765","longitude":"152.9966"},{"postcode":"4066","suburb":"Toowong BC","state":"QLD","latitude":"-27.48","longitude":"152.993"},{"postcode":"4066","suburb":"Toowong DC","state":"QLD","latitude":"-27.48","longitude":"152.993"},{"postcode":"4066","suburb":"Toowong","state":"QLD","latitude":"-27.4833","longitude":"152.9833"},{"postcode":"4067","suburb":"St Lucia South","state":"QLD","latitude":"-27.4868","longitude":"152.9592"},{"postcode":"4067","suburb":"St Lucia","state":"QLD","latitude":"-27.4982","longitude":"153.0004"},{"postcode":"4068","suburb":"Indooroopilly Centre","state":"QLD","latitude":"-27.5023","longitude":"152.9763"},{"postcode":"4068","suburb":"Indooroopilly","state":"QLD","latitude":"-27.503","longitude":"152.9752"},{"postcode":"4068","suburb":"Chelmer","state":"QLD","latitude":"-27.5133","longitude":"152.9752"},{"postcode":"4068","suburb":"Taringa","state":"QLD","latitude":"-27.4906","longitude":"152.9786"},{"postcode":"4069","suburb":"Fig Tree Pocket","state":"QLD","latitude":"-27.5278","longitude":"152.9619"},{"postcode":"4069","suburb":"Pinjarra Hills","state":"QLD","latitude":"-27.5383","longitude":"152.9074"},{"postcode":"4069","suburb":"Kenmore Hills","state":"QLD","latitude":"-27.5042","longitude":"152.9318"},{"postcode":"4069","suburb":"Kenmore East","state":"QLD","latitude":"-27.5072","longitude":"152.9208"},{"postcode":"4069","suburb":"Chapel Hill","state":"QLD","latitude":"-27.5026","longitude":"152.9501"},{"postcode":"4069","suburb":"Brookfield","state":"QLD","latitude":"-27.5","longitude":"152.9"},{"postcode":"4069","suburb":"Kenmore DC","state":"QLD","latitude":"-27.5072","longitude":"152.9208"},{"postcode":"4069","suburb":"Kenmore","state":"QLD","latitude":"-27.5076","longitude":"152.9388"},{"postcode":"4072","suburb":"University Of Queensland","state":"QLD","latitude":"-27.4978","longitude":"153.0135"},{"postcode":"4073","suburb":"Seventeen Mile Rocks","state":"QLD","latitude":"-27.5507","longitude":"152.959"},{"postcode":"4073","suburb":"Sinnamon Park","state":"QLD","latitude":"-27.5444","longitude":"152.9489"},{"postcode":"4074","suburb":"Jamboree Heights","state":"QLD","latitude":"-27.5563","longitude":"152.934"},{"postcode":"4074","suburb":"Sumner Park Bc","state":"QLD","latitude":"-27.5608","longitude":"152.9429"},{"postcode":"4074","suburb":"Mount Ommaney","state":"QLD","latitude":"-27.5354","longitude":"152.9382"},{"postcode":"4074","suburb":"Middle Park","state":"QLD","latitude":"-27.556","longitude":"152.9222"},{"postcode":"4074","suburb":"Jindalee","state":"QLD","latitude":"-27.5345","longitude":"152.9384"},{"postcode":"4074","suburb":"Westlake","state":"QLD","latitude":"-27.5486","longitude":"152.9128"},{"postcode":"4074","suburb":"Sumner","state":"QLD","latitude":"-27.5655","longitude":"152.9334"},{"postcode":"4075","suburb":"Graceville East","state":"QLD","latitude":"-27.5473","longitude":"152.9791"},{"postcode":"4075","suburb":"Graceville","state":"QLD","latitude":"-27.522","longitude":"152.9822"},{"postcode":"4075","suburb":"Sherwood","state":"QLD","latitude":"-27.5247","longitude":"152.9807"},{"postcode":"4075","suburb":"Corinda","state":"QLD","latitude":"-27.5333","longitude":"152.9833"},{"postcode":"4075","suburb":"Oxley","state":"QLD","latitude":"-27.55","longitude":"152.9833"},{"postcode":"4076","suburb":"Darra","state":"QLD","latitude":"-27.5667","longitude":"152.9667"},{"postcode":"4077","suburb":"Durack","state":"QLD","latitude":"-27.5895","longitude":"152.9858"},{"postcode":"4101","suburb":"South Brisbane BC","state":"QLD","latitude":"-27.4839","longitude":"153.015"},{"postcode":"4101","suburb":"South Brisbane","state":"QLD","latitude":"-27.4803","longitude":"153.0205"},{"postcode":"4101","suburb":"Highgate Hill","state":"QLD","latitude":"-27.4891","longitude":"153.0188"},{"postcode":"4101","suburb":"West End","state":"QLD","latitude":"-27.4833","longitude":"153"},{"postcode":"4102","suburb":"Woolloongabba","state":"QLD","latitude":"-27.4886","longitude":"153.0365"},{"postcode":"4102","suburb":"Dutton Park","state":"QLD","latitude":"-27.4966","longitude":"153.028"},{"postcode":"4102","suburb":"Buranda","state":"QLD","latitude":"-27.5202","longitude":"153.0278"},{"postcode":"4103","suburb":"Fairfield Gardens","state":"QLD","latitude":"-27.5094","longitude":"153.0286"},{"postcode":"4103","suburb":"Fairfield","state":"QLD","latitude":"-27.5064","longitude":"153.0248"},{"postcode":"4103","suburb":"Annerley","state":"QLD","latitude":"-27.5123","longitude":"153.0325"},{"postcode":"4104","suburb":"Yeronga","state":"QLD","latitude":"-27.5157","longitude":"153.0164"},{"postcode":"4105","suburb":"Yeerongpilly","state":"QLD","latitude":"-27.5215","longitude":"153.0123"},{"postcode":"4105","suburb":"Moorooka","state":"QLD","latitude":"-27.5344","longitude":"153.0246"},{"postcode":"4105","suburb":"Tennyson","state":"QLD","latitude":"-27.5333","longitude":"153.0167"},{"postcode":"4106","suburb":"Brisbane Market","state":"QLD","latitude":"-27.547","longitude":"153.0022"},{"postcode":"4106","suburb":"Rocklea Dc","state":"QLD","latitude":"-27.547","longitude":"153.0022"},{"postcode":"4106","suburb":"Rocklea","state":"QLD","latitude":"-27.5392","longitude":"153.004"},{"postcode":"4107","suburb":"Salisbury East","state":"QLD","latitude":"-27.5514","longitude":"153.0325"},{"postcode":"4107","suburb":"Salisbury","state":"QLD","latitude":"-27.5514","longitude":"153.0325"},{"postcode":"4108","suburb":"Archerfield BC","state":"QLD","latitude":"-27.5202","longitude":"153.0278"},{"postcode":"4108","suburb":"Coopers Plains","state":"QLD","latitude":"-27.5646","longitude":"153.0407"},{"postcode":"4108","suburb":"Archerfield","state":"QLD","latitude":"-27.5671","longitude":"153.0145"},{"postcode":"4109","suburb":"Sunnybank South","state":"QLD","latitude":"-27.5741","longitude":"153.0583"},{"postcode":"4109","suburb":"Macgregor","state":"QLD","latitude":"-27.5649","longitude":"153.0665"},{"postcode":"4109","suburb":"Robertson","state":"QLD","latitude":"-27.5658","longitude":"153.0574"},{"postcode":"4109","suburb":"Sunnybank","state":"QLD","latitude":"-27.5833","longitude":"153.05"},{"postcode":"4110","suburb":"Acacia Ridge","state":"QLD","latitude":"-27.5833","longitude":"153.0333"},{"postcode":"4110","suburb":"Willawong","state":"QLD","latitude":"-27.5972","longitude":"153.0074"},{"postcode":"4111","suburb":"Nathan","state":"QLD","latitude":"-27.5589","longitude":"153.0623"},{"postcode":"4113","suburb":"Eight Mile Plains","state":"QLD","latitude":"-27.5833","longitude":"153.1"},{"postcode":"4120","suburb":"Stones Corner","state":"QLD","latitude":"-27.5071","longitude":"153.0477"},{"postcode":"4120","suburb":"Greenslopes","state":"QLD","latitude":"-27.5082","longitude":"153.0495"},{"postcode":"4121","suburb":"Holland Park East","state":"QLD","latitude":"-27.5298","longitude":"153.0511"},{"postcode":"4121","suburb":"Holland Park West","state":"QLD","latitude":"-27.5262","longitude":"153.0605"},{"postcode":"4121","suburb":"Holland Park","state":"QLD","latitude":"-27.5262","longitude":"153.0605"},{"postcode":"4121","suburb":"Wellers Hill","state":"QLD","latitude":"-27.5333","longitude":"153.05"},{"postcode":"4121","suburb":"Tarragindi","state":"QLD","latitude":"-27.5333","longitude":"153.0333"},{"postcode":"4122","suburb":"Upper Mount Gravatt BC","state":"QLD","latitude":"-27.5439","longitude":"153.0922"},{"postcode":"4122","suburb":"Upper Mount Gravatt","state":"QLD","latitude":"-27.5613","longitude":"153.0845"},{"postcode":"4122","suburb":"Mount Gravatt East","state":"QLD","latitude":"-27.5405","longitude":"153.0822"},{"postcode":"4122","suburb":"Mount Gravatt","state":"QLD","latitude":"-27.5333","longitude":"153.0833"},{"postcode":"4122","suburb":"Mansfield BC","state":"QLD","latitude":"-27.5439","longitude":"153.0922"},{"postcode":"4122","suburb":"Mansfield DC","state":"QLD","latitude":"-27.5439","longitude":"153.0922"},{"postcode":"4122","suburb":"Mansfield","state":"QLD","latitude":"-27.5393","longitude":"153.099"},{"postcode":"4122","suburb":"Wishart","state":"QLD","latitude":"-27.5545","longitude":"153.1011"},{"postcode":"4151","suburb":"Coorparoo DC","state":"QLD","latitude":"-27.4932","longitude":"153.0583"},{"postcode":"4151","suburb":"Coorparoo","state":"QLD","latitude":"-27.4932","longitude":"153.0583"},{"postcode":"4152","suburb":"Carina Heights","state":"QLD","latitude":"-27.5072","longitude":"153.0913"},{"postcode":"4152","suburb":"Camp Hill","state":"QLD","latitude":"-27.4935","longitude":"153.0763"},{"postcode":"4152","suburb":"Carindale","state":"QLD","latitude":"-27.5058","longitude":"153.1024"},{"postcode":"4152","suburb":"Carina","state":"QLD","latitude":"-27.5072","longitude":"153.0913"},{"postcode":"4153","suburb":"Belmont","state":"QLD","latitude":"-27.5","longitude":"153.1167"},{"postcode":"4154","suburb":"Wakerley","state":"QLD","latitude":"-27.483","longitude":"153.1559"},{"postcode":"4154","suburb":"Gumdale","state":"QLD","latitude":"-27.4919","longitude":"153.1532"},{"postcode":"4155","suburb":"Chandler","state":"QLD","latitude":"-27.514","longitude":"153.1491"},{"postcode":"4156","suburb":"Mackenzie","state":"QLD","latitude":"-27.5435","longitude":"153.1206"},{"postcode":"4169","suburb":"Kangaroo Point","state":"QLD","latitude":"-27.4768","longitude":"153.0367"},{"postcode":"4169","suburb":"East Brisbane","state":"QLD","latitude":"-27.481","longitude":"153.044"},{"postcode":"4170","suburb":"Cannon Hill","state":"QLD","latitude":"-27.4724","longitude":"153.0947"},{"postcode":"4170","suburb":"Morningside","state":"QLD","latitude":"-27.4673","longitude":"153.0732"},{"postcode":"4170","suburb":"Norman Park","state":"QLD","latitude":"-27.4792","longitude":"153.0625"},{"postcode":"4170","suburb":"Seven Hills","state":"QLD","latitude":"-27.4834","longitude":"153.0747"},{"postcode":"4171","suburb":"Hawthorne","state":"QLD","latitude":"-27.4633","longitude":"153.0595"},{"postcode":"4171","suburb":"Balmoral","state":"QLD","latitude":"-27.4595","longitude":"153.0638"},{"postcode":"4171","suburb":"Bulimba","state":"QLD","latitude":"-27.45","longitude":"153.0667"},{"postcode":"4172","suburb":"Murarrie","state":"QLD","latitude":"-27.4629","longitude":"153.0981"},{"postcode":"4173","suburb":"Tingalpa Bc","state":"QLD","latitude":"-27.4594","longitude":"153.1211"},{"postcode":"4173","suburb":"Tingalpa Dc","state":"QLD","latitude":"-27.4594","longitude":"153.1211"},{"postcode":"4173","suburb":"Tingalpa","state":"QLD","latitude":"-27.4736","longitude":"153.127"},{"postcode":"4174","suburb":"Hemmant","state":"QLD","latitude":"-27.4478","longitude":"153.1317"},{"postcode":"4178","suburb":"Wynnum North","state":"QLD","latitude":"-27.4191","longitude":"153.1677"},{"postcode":"4178","suburb":"Wynnum Plaza","state":"QLD","latitude":"-27.4333","longitude":"153.1667"},{"postcode":"4178","suburb":"Wynnum West","state":"QLD","latitude":"-27.4582","longitude":"153.1532"},{"postcode":"4178","suburb":"Lytton","state":"QLD","latitude":"-27.423","longitude":"153.1511"},{"postcode":"4178","suburb":"Wynnum","state":"QLD","latitude":"-27.4453","longitude":"153.1581"},{"postcode":"4179","suburb":"Manly West","state":"QLD","latitude":"-27.4738","longitude":"153.1664"},{"postcode":"4344","suburb":"Seventeen Mile","state":"QLD","latitude":"-27.5507","longitude":"152.959"},{"postcode":"4359","suburb":"Ascot","state":"QLD","latitude":"-27.4315","longitude":"153.058"},{"postcode":"9000","suburb":"Brisbane","state":"QLD","latitude":"-27.4679","longitude":"153.0281"},{"postcode":"9001","suburb":"Brisbane","state":"QLD","latitude":"-27.4679","longitude":"153.0281"},{"postcode":"9002","suburb":"Brisbane","state":"QLD","latitude":"-27.4679","longitude":"153.0281"},{"postcode":"9005","suburb":"Brisbane","state":"QLD","latitude":"-27.4679","longitude":"153.0281"},{"postcode":"9007","suburb":"Brisbane","state":"QLD","latitude":"-27.4679","longitude":"153.0281"},{"postcode":"9008","suburb":"Brisbane","state":"QLD","latitude":"-27.4679","longitude":"153.0281"},{"postcode":"9009","suburb":"Brisbane","state":"QLD","latitude":"-27.4679","longitude":"153.0281"},{"postcode":"9010","suburb":"Brisbane","state":"QLD","latitude":"-27.4679","longitude":"153.0281"},{"postcode":"9013","suburb":"Brisbane","state":"QLD","latitude":"-27.4679","longitude":"153.0281"},{"postcode":"9015","suburb":"Brisbane","state":"QLD","latitude":"-27.4679","longitude":"153.0281"},{"postcode":"9016","suburb":"Brisbane GPO Boxes","state":"QLD","latitude":"-27.4679","longitude":"153.0281"},{"postcode":"9017","suburb":"Brisbane GPO Boxes","state":"QLD","latitude":"-27.4679","longitude":"153.0281"},{"postcode":"9018","suburb":"Brisbane GPO Boxes","state":"QLD","latitude":"-27.4679","longitude":"153.0281"},{"postcode":"9019","suburb":"Brisbane GPO Boxes","state":"QLD","latitude":"-27.4679","longitude":"153.0281"},{"postcode":"9020","suburb":"Brisbane","state":"QLD","latitude":"-27.4679","longitude":"153.0281"},{"postcode":"9021","suburb":"Brisbane GPO Boxes","state":"QLD","latitude":"-27.4679","longitude":"153.0281"},{"postcode":"9022","suburb":"Brisbane GPO Boxes","state":"QLD","latitude":"-27.4679","longitude":"153.0281"},{"postcode":"9023","suburb":"Brisbane GPO Boxes","state":"QLD","latitude":"-27.4679","longitude":"153.0281"},{"postcode":"812","suburb":"Holmes","state":"NT","latitude":"-37.814","longitude":"144.9633"},{"postcode":"862","suburb":"Renner Springs","state":"NT","latitude":"-37.8421","longitude":"145.0694"},{"postcode":"862","suburb":"Tablelands","state":"NT","latitude":"-37.8421","longitude":"145.0694"},{"postcode":"862","suburb":"Nicholson","state":"NT","latitude":"-37.8421","longitude":"145.0694"},{"postcode":"862","suburb":"Pamayu","state":"NT","latitude":"-37.8421","longitude":"145.0694"},{"postcode":"3000","suburb":"Melbourne","state":"VIC","latitude":"-37.814","longitude":"144.9633"},{"postcode":"3001","suburb":"Melbourne","state":"VIC","latitude":"-37.814","longitude":"144.9633"},{"postcode":"3002","suburb":"East Melbourne","state":"VIC","latitude":"-37.8167","longitude":"144.9879"},{"postcode":"3003","suburb":"West Melbourne","state":"VIC","latitude":"-37.8101","longitude":"144.95"},{"postcode":"3004","suburb":"St Kilda Road Melbourne","state":"VIC","latitude":"-37.814","longitude":"144.9633"},{"postcode":"3004","suburb":"St Kilda Road Central","state":"VIC","latitude":"-37.814","longitude":"144.9633"},{"postcode":"3004","suburb":"Melbourne","state":"VIC","latitude":"-37.814","longitude":"144.9633"},{"postcode":"3005","suburb":"World Trade Centre","state":"VIC","latitude":"-37.8152","longitude":"144.9632"},{"postcode":"3006","suburb":"South Wharf","state":"VIC","latitude":"-37.8253","longitude":"144.9522"},{"postcode":"3006","suburb":"Southbank","state":"VIC","latitude":"-37.8228","longitude":"144.9643"},{"postcode":"3008","suburb":"Docklands","state":"VIC","latitude":"-37.8149","longitude":"144.9505"},{"postcode":"3010","suburb":"University Of Melbourne","state":"VIC","latitude":"-37.7958","longitude":"144.9612"},{"postcode":"3011","suburb":"Seddon West","state":"VIC","latitude":"-37.7995","longitude":"144.8963"},{"postcode":"3011","suburb":"Footscray","state":"VIC","latitude":"-37.8","longitude":"144.9"},{"postcode":"3011","suburb":"Seddon","state":"VIC","latitude":"-37.8061","longitude":"144.8907"},{"postcode":"3012","suburb":"West Footscray","state":"VIC","latitude":"-37.7975","longitude":"144.8773"},{"postcode":"3012","suburb":"Kingsville","state":"VIC","latitude":"-37.8082","longitude":"144.8791"},{"postcode":"3012","suburb":"Maidstone","state":"VIC","latitude":"-37.7803","longitude":"144.8735"},{"postcode":"3012","suburb":"Tottenham","state":"VIC","latitude":"-37.7985","longitude":"144.8626"},{"postcode":"3012","suburb":"Brooklyn","state":"VIC","latitude":"-37.8161","longitude":"144.8415"},{"postcode":"3013","suburb":"Yarraville West","state":"VIC","latitude":"-37.8249","longitude":"144.8708"},{"postcode":"3013","suburb":"Yarraville","state":"VIC","latitude":"-37.8167","longitude":"144.9"},{"postcode":"3015","suburb":"South Kingsville","state":"VIC","latitude":"-37.8302","longitude":"144.8709"},{"postcode":"3015","suburb":"Spotswood","state":"VIC","latitude":"-37.8298","longitude":"144.8852"},{"postcode":"3015","suburb":"Newport","state":"VIC","latitude":"-37.8443","longitude":"144.8848"},{"postcode":"3016","suburb":"Williamstown North","state":"VIC","latitude":"-37.8552","longitude":"144.8826"},{"postcode":"3016","suburb":"Williamstown","state":"VIC","latitude":"-37.857","longitude":"144.8977"},{"postcode":"3018","suburb":"Seaholme","state":"VIC","latitude":"-37.864","longitude":"144.845"},{"postcode":"3018","suburb":"Altona","state":"VIC","latitude":"-37.8696","longitude":"144.8304"},{"postcode":"3019","suburb":"Braybrook","state":"VIC","latitude":"-37.7867","longitude":"144.8548"},{"postcode":"3019","suburb":"Robinson","state":"VIC","latitude":"-37.7867","longitude":"144.8548"},{"postcode":"3020","suburb":"Sunshine North","state":"VIC","latitude":"-37.7699","longitude":"144.8279"},{"postcode":"3020","suburb":"Sunshine West","state":"VIC","latitude":"-37.7912","longitude":"144.8164"},{"postcode":"3020","suburb":"Glengala","state":"VIC","latitude":"-37.775","longitude":"144.8333"},{"postcode":"3020","suburb":"Sunshine","state":"VIC","latitude":"-37.7833","longitude":"144.8333"},{"postcode":"3020","suburb":"Albion","state":"VIC","latitude":"-37.7667","longitude":"144.8333"},{"postcode":"3021","suburb":"Kealba","state":"VIC","latitude":"-37.7371","longitude":"144.8283"},{"postcode":"3022","suburb":"Deer Park East","state":"VIC","latitude":"-37.7764","longitude":"144.8016"},{"postcode":"3022","suburb":"Ardeer","state":"VIC","latitude":"-37.7759","longitude":"144.8014"},{"postcode":"3025","suburb":"Altona North","state":"VIC","latitude":"-37.8349","longitude":"144.8474"},{"postcode":"3025","suburb":"Altona East","state":"VIC","latitude":"-37.8349","longitude":"144.8474"},{"postcode":"3025","suburb":"Altona Gate","state":"VIC","latitude":"-37.8349","longitude":"144.8474"},{"postcode":"3026","suburb":"Laverton North","state":"VIC","latitude":"-37.8205","longitude":"144.8159"},{"postcode":"3031","suburb":"Flemington","state":"VIC","latitude":"-37.7882","longitude":"144.93"},{"postcode":"3031","suburb":"Kensington","state":"VIC","latitude":"-37.7833","longitude":"144.9333"},{"postcode":"3032","suburb":"Highpoint City","state":"VIC","latitude":"-37.7747","longitude":"144.8999"},{"postcode":"3032","suburb":"Maribyrnong","state":"VIC","latitude":"-37.7833","longitude":"144.8833"},{"postcode":"3032","suburb":"Ascot Vale","state":"VIC","latitude":"-37.7833","longitude":"144.9167"},{"postcode":"3032","suburb":"Travancore","state":"VIC","latitude":"-37.7808","longitude":"144.9354"},{"postcode":"3033","suburb":"Keilor East","state":"VIC","latitude":"-37.7326","longitude":"144.865"},{"postcode":"3034","suburb":"Avondale Heights","state":"VIC","latitude":"-37.7616","longitude":"144.8626"},{"postcode":"3039","suburb":"Moonee Ponds","state":"VIC","latitude":"-37.7667","longitude":"144.9167"},{"postcode":"3040","suburb":"Essendon West","state":"VIC","latitude":"-37.7576","longitude":"144.879"},{"postcode":"3040","suburb":"Aberfeldie","state":"VIC","latitude":"-37.7596","longitude":"144.8974"},{"postcode":"3040","suburb":"Essendon","state":"VIC","latitude":"-37.7667","longitude":"144.9167"},{"postcode":"3041","suburb":"Strathmore Heights","state":"VIC","latitude":"-37.7133","longitude":"144.8969"},{"postcode":"3041","suburb":"Essendon Fields","state":"VIC","latitude":"-37.7245","longitude":"144.8989"},{"postcode":"3041","suburb":"Essendon North","state":"VIC","latitude":"-37.7422","longitude":"144.9055"},{"postcode":"3041","suburb":"Cross Keys","state":"VIC","latitude":"-37.7133","longitude":"144.8969"},{"postcode":"3042","suburb":"Niddrie North","state":"VIC","latitude":"-37.7311","longitude":"144.8867"},{"postcode":"3042","suburb":"Airport West","state":"VIC","latitude":"-37.7247","longitude":"144.8813"},{"postcode":"3042","suburb":"Keilor Park","state":"VIC","latitude":"-37.7203","longitude":"144.8542"},{"postcode":"3042","suburb":"Niddrie","state":"VIC","latitude":"-37.7375","longitude":"144.8921"},{"postcode":"3043","suburb":"Tullamarine","state":"VIC","latitude":"-37.7013","longitude":"144.881"},{"postcode":"3043","suburb":"Gowanbrae","state":"VIC","latitude":"-37.7082","longitude":"144.8908"},{"postcode":"3044","suburb":"Pascoe Vale South","state":"VIC","latitude":"-37.7397","longitude":"144.9461"},{"postcode":"3044","suburb":"Pascoe Vale","state":"VIC","latitude":"-37.7333","longitude":"144.9333"},{"postcode":"3046","suburb":"Hadfield","state":"VIC","latitude":"-37.7073","longitude":"144.9416"},{"postcode":"3046","suburb":"Oak Park","state":"VIC","latitude":"-37.7184","longitude":"144.9195"},{"postcode":"3046","suburb":"Glenroy","state":"VIC","latitude":"-37.7","longitude":"144.9333"},{"postcode":"3047","suburb":"Jacana","state":"VIC","latitude":"-37.6878","longitude":"144.9111"},{"postcode":"3050","suburb":"Royal Melbourne Hospital","state":"VIC","latitude":"-37.7981","longitude":"144.9555"},{"postcode":"3051","suburb":"North Melbourne","state":"VIC","latitude":"-37.8","longitude":"144.9667"},{"postcode":"3051","suburb":"Hotham Hill","state":"VIC","latitude":"-37.7984","longitude":"144.9449"},{"postcode":"3052","suburb":"Melbourne University","state":"VIC","latitude":"-37.7603","longitude":"144.9502"},{"postcode":"3052","suburb":"Parkville","state":"VIC","latitude":"-37.7833","longitude":"144.95"},{"postcode":"3053","suburb":"Carlton South","state":"VIC","latitude":"-37.8004","longitude":"144.9681"},{"postcode":"3053","suburb":"Carlton","state":"VIC","latitude":"-37.8","longitude":"144.9667"},{"postcode":"3054","suburb":"Carlton North","state":"VIC","latitude":"-37.7833","longitude":"144.9667"},{"postcode":"3054","suburb":"Princes Hill","state":"VIC","latitude":"-37.7818","longitude":"144.9666"},{"postcode":"3055","suburb":"Brunswick South","state":"VIC","latitude":"-37.7603","longitude":"144.9502"},{"postcode":"3055","suburb":"Brunswick West","state":"VIC","latitude":"-37.7646","longitude":"144.9438"},{"postcode":"3055","suburb":"Moreland West","state":"VIC","latitude":"-37.7603","longitude":"144.9502"},{"postcode":"3055","suburb":"Moonee Vale","state":"VIC","latitude":"-37.7603","longitude":"144.9502"},{"postcode":"3056","suburb":"Brunswick Lower","state":"VIC","latitude":"-37.7667","longitude":"144.9667"},{"postcode":"3056","suburb":"Brunswick North","state":"VIC","latitude":"-37.7667","longitude":"144.9667"},{"postcode":"3056","suburb":"Brunswick","state":"VIC","latitude":"-37.7667","longitude":"144.9667"},{"postcode":"3057","suburb":"Brunswick East","state":"VIC","latitude":"-37.7725","longitude":"144.9724"},{"postcode":"3057","suburb":"Sumner","state":"VIC","latitude":"-37.7603","longitude":"144.9502"},{"postcode":"3058","suburb":"Coburg North","state":"VIC","latitude":"-37.7287","longitude":"144.9613"},{"postcode":"3058","suburb":"Merlynston","state":"VIC","latitude":"-37.7603","longitude":"144.9502"},{"postcode":"3058","suburb":"Moreland","state":"VIC","latitude":"-37.7603","longitude":"144.9502"},{"postcode":"3058","suburb":"Batman","state":"VIC","latitude":"-37.75","longitude":"144.9667"},{"postcode":"3058","suburb":"Coburg","state":"VIC","latitude":"-37.75","longitude":"144.9667"},{"postcode":"3060","suburb":"Fawkner","state":"VIC","latitude":"-37.7167","longitude":"144.9667"},{"postcode":"3061","suburb":"Campbellfield","state":"VIC","latitude":"-37.6833","longitude":"144.95"},{"postcode":"3065","suburb":"Fitzroy","state":"VIC","latitude":"-37.7984","longitude":"144.9783"},{"postcode":"3066","suburb":"Collingwood North","state":"VIC","latitude":"-37.8","longitude":"144.9833"},{"postcode":"3066","suburb":"Collingwood","state":"VIC","latitude":"-37.8","longitude":"144.9833"},{"postcode":"3067","suburb":"Abbotsford","state":"VIC","latitude":"-37.8","longitude":"145"},{"postcode":"3068","suburb":"Fitzroy North","state":"VIC","latitude":"-37.7886","longitude":"144.9788"},{"postcode":"3068","suburb":"Clifton Hill","state":"VIC","latitude":"-37.7904","longitude":"144.9975"},{"postcode":"3070","suburb":"Northcote South","state":"VIC","latitude":"-37.7667","longitude":"145"},{"postcode":"3070","suburb":"Northcote","state":"VIC","latitude":"-37.7667","longitude":"145"},{"postcode":"3071","suburb":"Thornbury","state":"VIC","latitude":"-37.75","longitude":"145"},{"postcode":"3072","suburb":"Northland Centre","state":"VIC","latitude":"-37.7241","longitude":"145.0179"},{"postcode":"3072","suburb":"Preston Lower","state":"VIC","latitude":"-37.75","longitude":"145.0167"},{"postcode":"3072","suburb":"Preston South","state":"VIC","latitude":"-37.7241","longitude":"145.0179"},{"postcode":"3072","suburb":"Preston West","state":"VIC","latitude":"-37.75","longitude":"145.0167"},{"postcode":"3072","suburb":"Regent West","state":"VIC","latitude":"-37.7241","longitude":"145.0179"},{"postcode":"3072","suburb":"Gilberton","state":"VIC","latitude":"-37.75","longitude":"145.0167"},{"postcode":"3072","suburb":"Preston","state":"VIC","latitude":"-37.75","longitude":"145.0167"},{"postcode":"3073","suburb":"Keon Park","state":"VIC","latitude":"-37.7","longitude":"145.0167"},{"postcode":"3073","suburb":"Reservoir","state":"VIC","latitude":"-37.7167","longitude":"145"},{"postcode":"3078","suburb":"Alphington","state":"VIC","latitude":"-37.7804","longitude":"145.0309"},{"postcode":"3078","suburb":"Fairfield","state":"VIC","latitude":"-37.7798","longitude":"145.0176"},{"postcode":"3079","suburb":"Ivanhoe North","state":"VIC","latitude":"-37.769","longitude":"145.0431"},{"postcode":"3079","suburb":"Ivanhoe East","state":"VIC","latitude":"-37.7832","longitude":"145.0525"},{"postcode":"3079","suburb":"Ivanhoe","state":"VIC","latitude":"-37.769","longitude":"145.0431"},{"postcode":"3081","suburb":"Heidelberg Heights","state":"VIC","latitude":"-37.7431","longitude":"145.057"},{"postcode":"3081","suburb":"Heidelberg West","state":"VIC","latitude":"-37.75","longitude":"145.0333"},{"postcode":"3081","suburb":"Heidelberg Rgh","state":"VIC","latitude":"-37.743","longitude":"145.0464"},{"postcode":"3081","suburb":"Bellfield","state":"VIC","latitude":"-37.7531","longitude":"145.0385"},{"postcode":"3083","suburb":"La Trobe University","state":"VIC","latitude":"-37.7062","longitude":"145.0474"},{"postcode":"3083","suburb":"Kingsbury","state":"VIC","latitude":"-37.7141","longitude":"145.0351"},{"postcode":"3084","suburb":"Heidelberg","state":"VIC","latitude":"-37.75","longitude":"145.0667"},{"postcode":"3084","suburb":"Eaglemont","state":"VIC","latitude":"-37.7638","longitude":"145.0638"},{"postcode":"3084","suburb":"Viewbank","state":"VIC","latitude":"-37.7399","longitude":"145.0932"},{"postcode":"3084","suburb":"Banyule","state":"VIC","latitude":"-37.7464","longitude":"145.0771"},{"postcode":"3084","suburb":"Rosanna","state":"VIC","latitude":"-37.7396","longitude":"145.0697"},{"postcode":"3085","suburb":"Macleod West","state":"VIC","latitude":"-37.7228","longitude":"145.0817"},{"postcode":"3085","suburb":"Macleod","state":"VIC","latitude":"-37.7204","longitude":"145.0698"},{"postcode":"3101","suburb":"Cotham","state":"VIC","latitude":"-37.8064","longitude":"145.0309"},{"postcode":"3101","suburb":"Kew","state":"VIC","latitude":"-37.8064","longitude":"145.0309"},{"postcode":"3102","suburb":"Kew East","state":"VIC","latitude":"-37.7976","longitude":"145.0538"},{"postcode":"3103","suburb":"Stradbroke Park","state":"VIC","latitude":"-37.8117","longitude":"145.081"},{"postcode":"3103","suburb":"Balwyn East","state":"VIC","latitude":"-37.8117","longitude":"145.081"},{"postcode":"3103","suburb":"Deepdene","state":"VIC","latitude":"-37.8167","longitude":"145.0667"},{"postcode":"3103","suburb":"Balwyn","state":"VIC","latitude":"-37.8117","longitude":"145.081"},{"postcode":"3104","suburb":"Balwyn North","state":"VIC","latitude":"-37.7909","longitude":"145.0939"},{"postcode":"3104","suburb":"Greythorn","state":"VIC","latitude":"-37.7909","longitude":"145.0939"},{"postcode":"3105","suburb":"Bulleen","state":"VIC","latitude":"-37.7667","longitude":"145.0833"},{"postcode":"3107","suburb":"Templestowe Lower","state":"VIC","latitude":"-37.7667","longitude":"145.1167"},{"postcode":"3108","suburb":"Doncaster","state":"VIC","latitude":"-37.7883","longitude":"145.1237"},{"postcode":"3121","suburb":"Richmond North","state":"VIC","latitude":"-37.8271","longitude":"145.0064"},{"postcode":"3121","suburb":"Richmond South","state":"VIC","latitude":"-37.8271","longitude":"145.0064"},{"postcode":"3121","suburb":"Burnley North","state":"VIC","latitude":"-37.8271","longitude":"145.0064"},{"postcode":"3121","suburb":"Richmond East","state":"VIC","latitude":"-37.8271","longitude":"145.0064"},{"postcode":"3121","suburb":"Cremorne","state":"VIC","latitude":"-37.8333","longitude":"145"},{"postcode":"3121","suburb":"Richmond","state":"VIC","latitude":"-37.8182","longitude":"145.0018"},{"postcode":"3121","suburb":"Burnley","state":"VIC","latitude":"-37.8286","longitude":"145.0077"},{"postcode":"3122","suburb":"Glenferrie South","state":"VIC","latitude":"-37.8344","longitude":"145.0397"},{"postcode":"3122","suburb":"Hawthorn North","state":"VIC","latitude":"-37.85","longitude":"145.0333"},{"postcode":"3122","suburb":"Hawthorn West","state":"VIC","latitude":"-37.8344","longitude":"145.0397"},{"postcode":"3122","suburb":"Auburn South","state":"VIC","latitude":"-37.8333","longitude":"145.05"},{"postcode":"3122","suburb":"Hawthorn","state":"VIC","latitude":"-37.8199","longitude":"145.0358"},{"postcode":"3123","suburb":"Hawthorn East","state":"VIC","latitude":"-37.8248","longitude":"145.0464"},{"postcode":"3123","suburb":"Auburn","state":"VIC","latitude":"-37.8167","longitude":"145.05"},{"postcode":"3124","suburb":"Middle Camberwell","state":"VIC","latitude":"-37.8248","longitude":"145.0705"},{"postcode":"3124","suburb":"Camberwell North","state":"VIC","latitude":"-37.8248","longitude":"145.0705"},{"postcode":"3124","suburb":"Camberwell South","state":"VIC","latitude":"-37.8248","longitude":"145.0705"},{"postcode":"3124","suburb":"Camberwell West","state":"VIC","latitude":"-37.8248","longitude":"145.0705"},{"postcode":"3124","suburb":"Camberwell","state":"VIC","latitude":"-37.8421","longitude":"145.0694"},{"postcode":"3124","suburb":"Hartwell","state":"VIC","latitude":"-37.8421","longitude":"145.0694"},{"postcode":"3125","suburb":"Surrey Hills South","state":"VIC","latitude":"-37.8498","longitude":"145.119"},{"postcode":"3125","suburb":"Bennettswood","state":"VIC","latitude":"-37.8495","longitude":"145.1114"},{"postcode":"3125","suburb":"Burwood","state":"VIC","latitude":"-37.8505","longitude":"145.0949"},{"postcode":"3126","suburb":"Camberwell East","state":"VIC","latitude":"-37.8248","longitude":"145.0705"},{"postcode":"3126","suburb":"Canterbury","state":"VIC","latitude":"-37.8247","longitude":"145.0848"},{"postcode":"3127","suburb":"Surrey Hills North","state":"VIC","latitude":"-37.8128","longitude":"145.1043"},{"postcode":"3127","suburb":"Surrey Hills","state":"VIC","latitude":"-37.8252","longitude":"145.1004"},{"postcode":"3127","suburb":"Mont Albert","state":"VIC","latitude":"-37.8167","longitude":"145.1"},{"postcode":"3128","suburb":"Box Hill Central","state":"VIC","latitude":"-37.8256","longitude":"145.1232"},{"postcode":"3128","suburb":"Box Hill South","state":"VIC","latitude":"-37.8324","longitude":"145.121"},{"postcode":"3128","suburb":"Wattle Park","state":"VIC","latitude":"-37.829","longitude":"145.1248"},{"postcode":"3128","suburb":"Box Hill","state":"VIC","latitude":"-37.8189","longitude":"145.1254"},{"postcode":"3128","suburb":"Houston","state":"VIC","latitude":"-37.829","longitude":"145.1248"},{"postcode":"3129","suburb":"Mont Albert North","state":"VIC","latitude":"-37.8004","longitude":"145.1083"},{"postcode":"3129","suburb":"Box Hill North","state":"VIC","latitude":"-37.8027","longitude":"145.1266"},{"postcode":"3129","suburb":"Kerrimuir","state":"VIC","latitude":"-37.8048","longitude":"145.1229"},{"postcode":"3141","suburb":"South Yarra","state":"VIC","latitude":"-37.8333","longitude":"144.9833"},{"postcode":"3142","suburb":"Hawksburn","state":"VIC","latitude":"-37.8416","longitude":"145.0177"},{"postcode":"3142","suburb":"Toorak","state":"VIC","latitude":"-37.8416","longitude":"145.0144"},{"postcode":"3143","suburb":"Armadale North","state":"VIC","latitude":"-37.85","longitude":"145.0333"},{"postcode":"3143","suburb":"Armadale","state":"VIC","latitude":"-37.8554","longitude":"145.0205"},{"postcode":"3144","suburb":"Malvern North","state":"VIC","latitude":"-37.8512","longitude":"145.0317"},{"postcode":"3144","suburb":"Kooyong","state":"VIC","latitude":"-37.8399","longitude":"145.0352"},{"postcode":"3144","suburb":"Malvern","state":"VIC","latitude":"-37.8626","longitude":"145.0281"},{"postcode":"3145","suburb":"Wattletree Road Po","state":"VIC","latitude":"-37.874","longitude":"145.0425"},{"postcode":"3145","suburb":"Caulfield East","state":"VIC","latitude":"-37.8833","longitude":"145.05"},{"postcode":"3145","suburb":"Darling South","state":"VIC","latitude":"-37.874","longitude":"145.0425"},{"postcode":"3145","suburb":"Central Park","state":"VIC","latitude":"-37.8775","longitude":"145.0624"},{"postcode":"3145","suburb":"Malvern East","state":"VIC","latitude":"-37.874","longitude":"145.0425"},{"postcode":"3145","suburb":"Darling","state":"VIC","latitude":"-37.8775","longitude":"145.0624"},{"postcode":"3146","suburb":"Glen Iris","state":"VIC","latitude":"-37.8667","longitude":"145.0667"},{"postcode":"3146","suburb":"Tooronga","state":"VIC","latitude":"-37.8599","longitude":"145.0549"},{"postcode":"3147","suburb":"Ashburton","state":"VIC","latitude":"-37.8626","longitude":"145.0794"},{"postcode":"3147","suburb":"Ashwood","state":"VIC","latitude":"-37.8666","longitude":"145.1055"},{"postcode":"3148","suburb":"Chadstone Centre","state":"VIC","latitude":"-37.8855","longitude":"145.1059"},{"postcode":"3148","suburb":"Holmesglen","state":"VIC","latitude":"-37.8821","longitude":"145.1002"},{"postcode":"3148","suburb":"Chadstone","state":"VIC","latitude":"-37.8877","longitude":"145.0952"},{"postcode":"3161","suburb":"Caulfield Junction","state":"VIC","latitude":"-37.872","longitude":"145.0216"},{"postcode":"3161","suburb":"Caulfield North","state":"VIC","latitude":"-37.8739","longitude":"145.0249"},{"postcode":"3162","suburb":"Hopetoun Gardens","state":"VIC","latitude":"-37.8914","longitude":"145.0254"},{"postcode":"3162","suburb":"Caulfield South","state":"VIC","latitude":"-37.8956","longitude":"145.026"},{"postcode":"3162","suburb":"Caulfield","state":"VIC","latitude":"-37.8825","longitude":"145.0229"},{"postcode":"3163","suburb":"Booran Road Po","state":"VIC","latitude":"-37.8895","longitude":"145.0581"},{"postcode":"3163","suburb":"Glen Huntly","state":"VIC","latitude":"-37.8833","longitude":"145.05"},{"postcode":"3163","suburb":"Murrumbeena","state":"VIC","latitude":"-37.8902","longitude":"145.0711"},{"postcode":"3163","suburb":"Carnegie","state":"VIC","latitude":"-37.8833","longitude":"145.0667"},{"postcode":"3165","suburb":"Bentleigh East","state":"VIC","latitude":"-37.9193","longitude":"145.053"},{"postcode":"3166","suburb":"Hughesdale","state":"VIC","latitude":"-37.9","longitude":"145.0833"},{"postcode":"3166","suburb":"Oakleigh","state":"VIC","latitude":"-37.8981","longitude":"145.0884"},{"postcode":"3181","suburb":"Prahran East","state":"VIC","latitude":"-37.853","longitude":"144.9929"},{"postcode":"3181","suburb":"Prahran","state":"VIC","latitude":"-37.8511","longitude":"144.9932"},{"postcode":"3181","suburb":"Windsor","state":"VIC","latitude":"-37.8548","longitude":"144.9927"},{"postcode":"3182","suburb":"St Kilda South","state":"VIC","latitude":"-37.8633","longitude":"144.9802"},{"postcode":"3182","suburb":"St Kilda West","state":"VIC","latitude":"-37.8599","longitude":"144.9711"},{"postcode":"3182","suburb":"St Kilda","state":"VIC","latitude":"-37.8633","longitude":"144.9802"},{"postcode":"3183","suburb":"St Kilda East","state":"VIC","latitude":"-37.8659","longitude":"145.0002"},{"postcode":"3183","suburb":"Balaclava","state":"VIC","latitude":"-37.8692","longitude":"144.9977"},{"postcode":"3184","suburb":"Brighton Road","state":"VIC","latitude":"-37.8809","longitude":"144.9855"},{"postcode":"3184","suburb":"Elwood","state":"VIC","latitude":"-37.8821","longitude":"144.9821"},{"postcode":"3185","suburb":"Elsternwick","state":"VIC","latitude":"-37.8864","longitude":"145.0025"},{"postcode":"3185","suburb":"Gardenvale","state":"VIC","latitude":"-37.8979","longitude":"145.0074"},{"postcode":"3185","suburb":"Ripponlea","state":"VIC","latitude":"-37.8833","longitude":"145"},{"postcode":"3186","suburb":"Brighton North","state":"VIC","latitude":"-37.9069","longitude":"145.0053"},{"postcode":"3186","suburb":"Were Street Po","state":"VIC","latitude":"-37.9057","longitude":"145.0067"},{"postcode":"3186","suburb":"Brighton","state":"VIC","latitude":"-37.9056","longitude":"145.0028"},{"postcode":"3186","suburb":"Dendy","state":"VIC","latitude":"-37.895","longitude":"145.0191"},{"postcode":"3187","suburb":"Brighton East","state":"VIC","latitude":"-37.9023","longitude":"145.0173"},{"postcode":"3188","suburb":"Hampton North","state":"VIC","latitude":"-37.9374","longitude":"145.0151"},{"postcode":"3188","suburb":"Hampton East","state":"VIC","latitude":"-37.937","longitude":"145.0286"},{"postcode":"3188","suburb":"Hampton","state":"VIC","latitude":"-37.9372","longitude":"145.0046"},{"postcode":"3189","suburb":"Moorabbin East","state":"VIC","latitude":"-37.9367","longitude":"145.0342"},{"postcode":"3189","suburb":"Moorabbin","state":"VIC","latitude":"-37.9367","longitude":"145.0342"},{"postcode":"3204","suburb":"Bentleigh","state":"VIC","latitude":"-37.9181","longitude":"145.0354"},{"postcode":"3204","suburb":"Mckinnon","state":"VIC","latitude":"-37.9167","longitude":"145.05"},{"postcode":"3204","suburb":"Ormond","state":"VIC","latitude":"-37.9039","longitude":"145.0415"},{"postcode":"3205","suburb":"South Melbourne Dc","state":"VIC","latitude":"-37.8335","longitude":"144.9571"},{"postcode":"3205","suburb":"South Melbourne","state":"VIC","latitude":"-37.8333","longitude":"144.9667"},{"postcode":"3206","suburb":"Albert Park","state":"VIC","latitude":"-37.8333","longitude":"145"},{"postcode":"3206","suburb":"Middle Park","state":"VIC","latitude":"-37.8512","longitude":"144.962"},{"postcode":"3207","suburb":"Port Melbourne","state":"VIC","latitude":"-37.8396","longitude":"144.9423"},{"postcode":"3207","suburb":"Garden City","state":"VIC","latitude":"-37.836","longitude":"144.9183"},{"postcode":"3381","suburb":"Bellfield","state":"VIC","latitude":"-37.7531","longitude":"145.0385"},{"postcode":"8001","suburb":"Melbourne","state":"VIC","latitude":"-37.814","longitude":"144.9633"},{"postcode":"8002","suburb":"East Melbourne","state":"VIC","latitude":"-37.8167","longitude":"144.9879"},{"postcode":"8003","suburb":"Collins Street East","state":"VIC","latitude":"-37.8153","longitude":"144.9756"},{"postcode":"8004","suburb":"St Kilda Road","state":"VIC","latitude":"-37.8153","longitude":"144.9756"},{"postcode":"8005","suburb":"World Trade Centre","state":"VIC","latitude":"-37.8153","longitude":"144.9756"},{"postcode":"8006","suburb":"Abeckett Street","state":"VIC","latitude":"-37.8153","longitude":"144.9756"},{"postcode":"8007","suburb":"Collins Street West","state":"VIC","latitude":"-37.8153","longitude":"144.9756"},{"postcode":"8008","suburb":"St Kilda Road Central","state":"VIC","latitude":"-37.8153","longitude":"144.9756"},{"postcode":"8009","suburb":"Flinders Lane","state":"VIC","latitude":"-37.8153","longitude":"144.9756"},{"postcode":"8010","suburb":"Law Courts","state":"VIC","latitude":"-37.8149","longitude":"144.9505"},{"postcode":"8011","suburb":"Little Lonsdale Street","state":"VIC","latitude":"-37.8149","longitude":"144.9505"},{"postcode":"8012","suburb":"Docklands","state":"VIC","latitude":"-37.8149","longitude":"144.9505"},{"postcode":"8045","suburb":"Melbourne","state":"VIC","latitude":"-37.814","longitude":"144.9633"},{"postcode":"8051","suburb":"Melbourne","state":"VIC","latitude":"-37.814","longitude":"144.9633"},{"postcode":"8060","suburb":"Melbourne","state":"VIC","latitude":"-37.814","longitude":"144.9633"},{"postcode":"8061","suburb":"Melbourne","state":"VIC","latitude":"-37.814","longitude":"144.9633"},{"postcode":"8066","suburb":"Melbourne","state":"VIC","latitude":"-37.814","longitude":"144.9633"},{"postcode":"8069","suburb":"Melbourne","state":"VIC","latitude":"-37.814","longitude":"144.9633"},{"postcode":"8070","suburb":"Melbourne","state":"VIC","latitude":"-37.814","longitude":"144.9633"},{"postcode":"8071","suburb":"Melbourne","state":"VIC","latitude":"-37.814","longitude":"144.9633"},{"postcode":"8102","suburb":"Melbourne","state":"VIC","latitude":"-37.814","longitude":"144.9633"},{"postcode":"8103","suburb":"Melbourne","state":"VIC","latitude":"-37.814","longitude":"144.9633"},{"postcode":"8107","suburb":"Melbourne","state":"VIC","latitude":"-37.814","longitude":"144.9633"},{"postcode":"8108","suburb":"Melbourne","state":"VIC","latitude":"-37.814","longitude":"144.9633"},{"postcode":"8111","suburb":"Melbourne","state":"VIC","latitude":"-37.814","longitude":"144.9633"},{"postcode":"8120","suburb":"Melbourne","state":"VIC","latitude":"-37.814","longitude":"144.9633"},{"postcode":"8205","suburb":"Melbourne","state":"VIC","latitude":"-37.814","longitude":"144.9633"},{"postcode":"8383","suburb":"Melbourne","state":"VIC","latitude":"-37.814","longitude":"144.9633"},{"postcode":"8386","suburb":"Melbourne","state":"VIC","latitude":"-37.814","longitude":"144.9633"},{"postcode":"8388","suburb":"Melbourne","state":"VIC","latitude":"-37.814","longitude":"144.9633"},{"postcode":"8390","suburb":"Melbourne","state":"VIC","latitude":"-37.814","longitude":"144.9633"},{"postcode":"8393","suburb":"Melbourne","state":"VIC","latitude":"-37.814","longitude":"144.9633"},{"postcode":"8394","suburb":"Melbourne","state":"VIC","latitude":"-37.814","longitude":"144.9633"},{"postcode":"8396","suburb":"Melbourne","state":"VIC","latitude":"-37.814","longitude":"144.9633"},{"postcode":"8399","suburb":"Melbourne","state":"VIC","latitude":"-37.814","longitude":"144.9633"},{"postcode":"8627","suburb":"Camberwell","state":"VIC","latitude":"-37.8421","longitude":"145.0694"},{"postcode":"4211","suburb":"Southern Lamington","state":"QLD","latitude":"-28.0195","longitude":"153.2946"},{"postcode":"4211","suburb":"Highland Park","state":"QLD","latitude":"-28.0139","longitude":"153.3331"},{"postcode":"4211","suburb":"Pacific Pines","state":"QLD","latitude":"-27.9399","longitude":"153.3144"},{"postcode":"4211","suburb":"Binna Burra","state":"QLD","latitude":"-28.0195","longitude":"153.2946"},{"postcode":"4211","suburb":"Nerang BC","state":"QLD","latitude":"-28.0195","longitude":"153.2946"},{"postcode":"4211","suburb":"Nerang DC","state":"QLD","latitude":"-28.0195","longitude":"153.2946"},{"postcode":"4211","suburb":"Carrara","state":"QLD","latitude":"-28.0215","longitude":"153.3664"},{"postcode":"4211","suburb":"Gilston","state":"QLD","latitude":"-28.0333","longitude":"153.3"},{"postcode":"4211","suburb":"Nerang","state":"QLD","latitude":"-27.9894","longitude":"153.3363"},{"postcode":"4211","suburb":"Gaven","state":"QLD","latitude":"-27.9565","longitude":"153.3345"},{"postcode":"4212","suburb":"Helensvale","state":"QLD","latitude":"-27.9183","longitude":"153.3327"},{"postcode":"4213","suburb":"Mudgeeraba","state":"QLD","latitude":"-28.0833","longitude":"153.3667"},{"postcode":"4213","suburb":"Worongary","state":"QLD","latitude":"-28.05","longitude":"153.35"},{"postcode":"4213","suburb":"Tallai","state":"QLD","latitude":"-28.0641","longitude":"153.3259"},{"postcode":"4214","suburb":"Ashmore City","state":"QLD","latitude":"-27.9638","longitude":"153.3658"},{"postcode":"4214","suburb":"Arundel Bc","state":"QLD","latitude":"-27.9631","longitude":"153.3656"},{"postcode":"4214","suburb":"Arundel Dc","state":"QLD","latitude":"-27.9631","longitude":"153.3656"},{"postcode":"4214","suburb":"Molendinar","state":"QLD","latitude":"-27.9741","longitude":"153.3607"},{"postcode":"4214","suburb":"Parkwood","state":"QLD","latitude":"-27.9546","longitude":"153.363"},{"postcode":"4214","suburb":"Arundel","state":"QLD","latitude":"-27.9377","longitude":"153.363"},{"postcode":"4214","suburb":"Ashmore","state":"QLD","latitude":"-27.9888","longitude":"153.3765"},{"postcode":"4215","suburb":"Australia Fair","state":"QLD","latitude":"-27.9553","longitude":"153.3991"},{"postcode":"4215","suburb":"Southport Park","state":"QLD","latitude":"-27.9553","longitude":"153.3991"},{"postcode":"4215","suburb":"Southport BC","state":"QLD","latitude":"-27.9553","longitude":"153.3991"},{"postcode":"4215","suburb":"Chirn Park","state":"QLD","latitude":"-27.9553","longitude":"153.3991"},{"postcode":"4215","suburb":"Southport","state":"QLD","latitude":"-27.9672","longitude":"153.398"},{"postcode":"4215","suburb":"Labrador","state":"QLD","latitude":"-27.944","longitude":"153.3982"},{"postcode":"4216","suburb":"Biggera Waters","state":"QLD","latitude":"-27.9324","longitude":"153.4002"},{"postcode":"4216","suburb":"Paradise Point","state":"QLD","latitude":"-27.8866","longitude":"153.3933"},{"postcode":"4216","suburb":"Runaway Bay","state":"QLD","latitude":"-27.9139","longitude":"153.3977"},{"postcode":"4216","suburb":"Coombabah","state":"QLD","latitude":"-27.9107","longitude":"153.3709"},{"postcode":"4216","suburb":"Hollywell","state":"QLD","latitude":"-27.9008","longitude":"153.3961"},{"postcode":"4217","suburb":"Surfers Paradise","state":"QLD","latitude":"-28.0027","longitude":"153.43"},{"postcode":"4217","suburb":"Chevron Island","state":"QLD","latitude":"-27.9996","longitude":"153.4093"},{"postcode":"4217","suburb":"Gold Coast Mc","state":"QLD","latitude":"-28.0023","longitude":"153.4153"},{"postcode":"4217","suburb":"Isle Of Capri","state":"QLD","latitude":"-27.9996","longitude":"153.4093"},{"postcode":"4217","suburb":"Bundall BC","state":"QLD","latitude":"-28.0023","longitude":"153.4153"},{"postcode":"4217","suburb":"Bundall DC","state":"QLD","latitude":"-28.0023","longitude":"153.4153"},{"postcode":"4217","suburb":"Main Beach","state":"QLD","latitude":"-27.9788","longitude":"153.4266"},{"postcode":"4217","suburb":"Bundall","state":"QLD","latitude":"-28.0111","longitude":"153.4048"},{"postcode":"4217","suburb":"Benowa","state":"QLD","latitude":"-28.0167","longitude":"153.4"},{"postcode":"4218","suburb":"Broadbeach Waters","state":"QLD","latitude":"-28.035","longitude":"153.425"},{"postcode":"4218","suburb":"Mermaid Waters","state":"QLD","latitude":"-28.0491","longitude":"153.4308"},{"postcode":"4218","suburb":"Mermaid Beach","state":"QLD","latitude":"-28.0441","longitude":"153.4347"},{"postcode":"4218","suburb":"Q Supercentre","state":"QLD","latitude":"-28.0396","longitude":"153.4217"},{"postcode":"4218","suburb":"Pacific Fair","state":"QLD","latitude":"-28.0396","longitude":"153.4217"},{"postcode":"4218","suburb":"Nobby Beach","state":"QLD","latitude":"-28.0396","longitude":"153.4217"},{"postcode":"4218","suburb":"Broadbeach","state":"QLD","latitude":"-28.0278","longitude":"153.4334"},{"postcode":"4219","suburb":"West Burleigh","state":"QLD","latitude":"-28.1167","longitude":"153.4333"},{"postcode":"4220","suburb":"Burleigh Waters","state":"QLD","latitude":"-28.0998","longitude":"153.4246"},{"postcode":"4220","suburb":"Burleigh Heads","state":"QLD","latitude":"-28.1","longitude":"153.45"},{"postcode":"4220","suburb":"Burleigh Town","state":"QLD","latitude":"-28.0895","longitude":"153.4341"},{"postcode":"4220","suburb":"Burleigh DC","state":"QLD","latitude":"-28.0859","longitude":"153.4458"},{"postcode":"4220","suburb":"Miami","state":"QLD","latitude":"-28.0717","longitude":"153.4416"},{"postcode":"4221","suburb":"Palm Beach","state":"QLD","latitude":"-28.1169","longitude":"153.4658"},{"postcode":"4221","suburb":"Elanora","state":"QLD","latitude":"-28.1358","longitude":"153.4493"},{"postcode":"4222","suburb":"Griffith University","state":"QLD","latitude":"-28.1235","longitude":"153.4442"},{"postcode":"4226","suburb":"Clear Island Waters","state":"QLD","latitude":"-28.0531","longitude":"153.3981"},{"postcode":"4226","suburb":"Robina DC","state":"QLD","latitude":"-28.0642","longitude":"153.3794"},{"postcode":"4226","suburb":"Merrimac","state":"QLD","latitude":"-28.0509","longitude":"153.3731"},{"postcode":"4226","suburb":"Robina","state":"QLD","latitude":"-28.0707","longitude":"153.3933"},{"postcode":"4227","suburb":"Varsity Lakes","state":"QLD","latitude":"-28.0894","longitude":"153.4122"},{"postcode":"4227","suburb":"Reedy Creek","state":"QLD","latitude":"-28.1124","longitude":"153.3964"},{"postcode":"4229","suburb":"Bond University","state":"QLD","latitude":"-28.0779","longitude":"153.4123"},{"postcode":"4230","suburb":"Robina Town Centre","state":"QLD","latitude":"-28.0757","longitude":"153.3842"},{"postcode":"4551","suburb":"Little Mountain","state":"QLD","latitude":"-26.7844","longitude":"153.0922"},{"postcode":"4551","suburb":"Caloundra West","state":"QLD","latitude":"-26.7985","longitude":"153.114"},{"postcode":"4551","suburb":"Meridan Plains","state":"QLD","latitude":"-26.7735","longitude":"153.0619"},{"postcode":"4551","suburb":"Battery Hill","state":"QLD","latitude":"-26.7788","longitude":"153.1289"},{"postcode":"4551","suburb":"Caloundra BC","state":"QLD","latitude":"-26.7961","longitude":"153.1229"},{"postcode":"4551","suburb":"Caloundra DC","state":"QLD","latitude":"-26.7961","longitude":"153.1229"},{"postcode":"4551","suburb":"Moffat Beach","state":"QLD","latitude":"-26.7905","longitude":"153.14"},{"postcode":"4551","suburb":"Shelly Beach","state":"QLD","latitude":"-26.7965","longitude":"153.1458"},{"postcode":"4551","suburb":"Bells Creek","state":"QLD","latitude":"-26.7836","longitude":"153.0605"},{"postcode":"4551","suburb":"Dicky Beach","state":"QLD","latitude":"-26.7836","longitude":"153.1377"},{"postcode":"4551","suburb":"Kings Beach","state":"QLD","latitude":"-26.8017","longitude":"153.1426"},{"postcode":"4551","suburb":"Currimundi","state":"QLD","latitude":"-26.7693","longitude":"153.1224"},{"postcode":"4551","suburb":"Caloundra","state":"QLD","latitude":"-26.8035","longitude":"153.1219"},{"postcode":"4551","suburb":"Aroona","state":"QLD","latitude":"-26.7817","longitude":"153.1165"},{"postcode":"4553","suburb":"Glenview","state":"QLD","latitude":"-26.7667","longitude":"153.0167"},{"postcode":"4553","suburb":"Palmview","state":"QLD","latitude":"-26.746","longitude":"153.0599"},{"postcode":"4554","suburb":"Ilkley","state":"QLD","latitude":"-26.731","longitude":"152.9977"},{"postcode":"4555","suburb":"Chevallum","state":"QLD","latitude":"-26.7007","longitude":"152.9935"},{"postcode":"4556","suburb":"Forest Glen","state":"QLD","latitude":"-26.6886","longitude":"153.0045"},{"postcode":"4556","suburb":"Sippy Downs","state":"QLD","latitude":"-26.7179","longitude":"153.0547"},{"postcode":"4556","suburb":"Kunda Park","state":"QLD","latitude":"-26.6643","longitude":"153.0354"},{"postcode":"4556","suburb":"Buderim","state":"QLD","latitude":"-26.6844","longitude":"153.0571"},{"postcode":"4556","suburb":"Tanawha","state":"QLD","latitude":"-26.7198","longitude":"153.0302"},{"postcode":"4556","suburb":"Mons","state":"QLD","latitude":"-26.6916","longitude":"153.025"},{"postcode":"4557","suburb":"Mountain Creek","state":"QLD","latitude":"-26.7028","longitude":"153.1013"},{"postcode":"4557","suburb":"Mooloolaba","state":"QLD","latitude":"-26.6816","longitude":"153.1192"},{"postcode":"4558","suburb":"Maroochydore Bc","state":"QLD","latitude":"-26.6546","longitude":"153.0777"},{"postcode":"4558","suburb":"Maroochydore DC","state":"QLD","latitude":"-26.6589","longitude":"153.0778"},{"postcode":"4558","suburb":"Sunshine Plaza","state":"QLD","latitude":"-26.6546","longitude":"153.0777"},{"postcode":"4558","suburb":"Maroochydore","state":"QLD","latitude":"-26.6601","longitude":"153.0995"},{"postcode":"4558","suburb":"Cotton Tree","state":"QLD","latitude":"-26.6535","longitude":"153.1012"},{"postcode":"4558","suburb":"Kuluin","state":"QLD","latitude":"-26.6578","longitude":"153.0561"},{"postcode":"4559","suburb":"Kiels Mountain","state":"QLD","latitude":"-26.6565","longitude":"153.0081"},{"postcode":"4559","suburb":"Diddillibah","state":"QLD","latitude":"-26.6417","longitude":"153.0496"},{"postcode":"4560","suburb":"Rosemount","state":"QLD","latitude":"-26.6303","longitude":"152.9997"},{"postcode":"4560","suburb":"Bli Bli","state":"QLD","latitude":"-26.6172","longitude":"153.0367"},{"postcode":"4564","suburb":"Pacific Paradise","state":"QLD","latitude":"-26.6181","longitude":"153.0778"},{"postcode":"4564","suburb":"Twin Waters","state":"QLD","latitude":"-26.61","longitude":"153"},{"postcode":"4564","suburb":"Marcoola","state":"QLD","latitude":"-26.5845","longitude":"153.0947"},{"postcode":"4564","suburb":"Mudjimba","state":"QLD","latitude":"-26.615","longitude":"153.0989"},{"postcode":"4572","suburb":"Alexandra Headland","state":"QLD","latitude":"-26.672","longitude":"153.1079"},{"postcode":"4573","suburb":"Mount Coolum","state":"QLD","latitude":"-26.5658","longitude":"153.0914"},{"postcode":"4573","suburb":"Yaroomba","state":"QLD","latitude":"-26.5513","longitude":"153.097"},{"postcode":"4575","suburb":"Parrearra","state":"QLD","latitude":"-26.7115","longitude":"153.122"},{"postcode":"4575","suburb":"Birtinya","state":"QLD","latitude":"-26.7432","longitude":"153.1191"},{"postcode":"4575","suburb":"Bokarina","state":"QLD","latitude":"-26.7384","longitude":"153.1305"},{"postcode":"4575","suburb":"Wurtulla","state":"QLD","latitude":"-26.7565","longitude":"153.128"},{"postcode":"4575","suburb":"Buddina","state":"QLD","latitude":"-26.6956","longitude":"153.133"},{"postcode":"4575","suburb":"Minyama","state":"QLD","latitude":"-26.6957","longitude":"153.1235"},{"postcode":"4575","suburb":"Warana","state":"QLD","latitude":"-26.7227","longitude":"153.1269"},{"postcode":"4285","suburb":"Birnam","state":"QLD","latitude":"-27.4833","longitude":"151.9167"},{"postcode":"4344","suburb":"Rockmount","state":"QLD","latitude":"-27.6833","longitude":"152.0333"},{"postcode":"4344","suburb":"Stockyard","state":"QLD","latitude":"-27.6333","longitude":"152.0667"},{"postcode":"4344","suburb":"Iredale","state":"QLD","latitude":"-27.6003","longitude":"152.0873"},{"postcode":"4350","suburb":"Toowoomba Village Fair","state":"QLD","latitude":"-27.6284","longitude":"151.8604"},{"postcode":"4350","suburb":"Blue Mountain Heights","state":"QLD","latitude":"-27.5049","longitude":"151.9559"},{"postcode":"4350","suburb":"Prince Henry Heights","state":"QLD","latitude":"-27.5511","longitude":"151.991"},{"postcode":"4350","suburb":"Centenary Heights","state":"QLD","latitude":"-27.5868","longitude":"151.9625"},{"postcode":"4350","suburb":"Wilsonton Heights","state":"QLD","latitude":"-27.5323","longitude":"151.9244"},{"postcode":"4350","suburb":"Clifford Gardens","state":"QLD","latitude":"-27.6284","longitude":"151.8604"},{"postcode":"4350","suburb":"Darling Heights","state":"QLD","latitude":"-27.5966","longitude":"151.9305"},{"postcode":"4350","suburb":"Gowrie Mountain","state":"QLD","latitude":"-27.6284","longitude":"151.8604"},{"postcode":"4350","suburb":"Kearneys Spring","state":"QLD","latitude":"-27.6049","longitude":"151.941"},{"postcode":"4350","suburb":"North Toowoomba","state":"QLD","latitude":"-27.5441","longitude":"151.9612"},{"postcode":"4350","suburb":"South Toowoomba","state":"QLD","latitude":"-27.571","longitude":"151.9465"},{"postcode":"4350","suburb":"Toowoomba South","state":"QLD","latitude":"-27.5717","longitude":"151.8559"},{"postcode":"4350","suburb":"Cotswold Hills","state":"QLD","latitude":"-27.5224","longitude":"151.8952"},{"postcode":"4350","suburb":"East Toowoomba","state":"QLD","latitude":"-27.5709","longitude":"151.9742"},{"postcode":"4350","suburb":"Toowoomba City","state":"QLD","latitude":"-27.5802","longitude":"151.9439"},{"postcode":"4350","suburb":"Toowoomba East","state":"QLD","latitude":"-27.5717","longitude":"151.8559"},{"postcode":"4350","suburb":"Drayton North","state":"QLD","latitude":"-27.6284","longitude":"151.8604"},{"postcode":"4350","suburb":"Middle Ridge","state":"QLD","latitude":"-27.6071","longitude":"151.9669"},{"postcode":"4350","suburb":"Mount Kynoch","state":"QLD","latitude":"-27.5107","longitude":"151.9481"},{"postcode":"4350","suburb":"Mount Rascal","state":"QLD","latitude":"-27.635","longitude":"151.9143"},{"postcode":"4350","suburb":"Toowoomba BC","state":"QLD","latitude":"-27.6284","longitude":"151.8604"},{"postcode":"4350","suburb":"Toowoomba DC","state":"QLD","latitude":"-27.6284","longitude":"151.8604"},{"postcode":"4350","suburb":"Wyalla Plaza","state":"QLD","latitude":"-27.5717","longitude":"151.8559"},{"postcode":"4350","suburb":"Mount Lofty","state":"QLD","latitude":"-27.5463","longitude":"151.9722"},{"postcode":"4350","suburb":"Harristown","state":"QLD","latitude":"-27.5833","longitude":"151.9333"},{"postcode":"4350","suburb":"Northlands","state":"QLD","latitude":"-27.5717","longitude":"151.8559"},{"postcode":"4350","suburb":"Rangeville","state":"QLD","latitude":"-27.5832","longitude":"151.98"},{"postcode":"4350","suburb":"Torrington","state":"QLD","latitude":"-27.5424","longitude":"151.8879"},{"postcode":"4350","suburb":"Harlaxton","state":"QLD","latitude":"-27.5333","longitude":"151.9667"},{"postcode":"4350","suburb":"Rockville","state":"QLD","latitude":"-27.5361","longitude":"151.938"},{"postcode":"4350","suburb":"Southtown","state":"QLD","latitude":"-27.5717","longitude":"151.8559"},{"postcode":"4350","suburb":"Toowoomba","state":"QLD","latitude":"-27.5606","longitude":"151.9539"},{"postcode":"4350","suburb":"Westbrook","state":"QLD","latitude":"-27.6167","longitude":"151.8667"},{"postcode":"4350","suburb":"Wilsonton","state":"QLD","latitude":"-27.5431","longitude":"151.9168"},{"postcode":"4350","suburb":"Charlton","state":"QLD","latitude":"-27.5333","longitude":"151.8667"},{"postcode":"4350","suburb":"Glenvale","state":"QLD","latitude":"-27.5682","longitude":"151.8934"},{"postcode":"4350","suburb":"Top Camp","state":"QLD","latitude":"-27.6358","longitude":"151.9392"},{"postcode":"4350","suburb":"Wellcamp","state":"QLD","latitude":"-27.55","longitude":"151.8667"},{"postcode":"4350","suburb":"Cranley","state":"QLD","latitude":"-27.5167","longitude":"151.95"},{"postcode":"4350","suburb":"Drayton","state":"QLD","latitude":"-27.5833","longitude":"151.9167"},{"postcode":"4350","suburb":"Newtown","state":"QLD","latitude":"-27.556","longitude":"151.9325"},{"postcode":"4350","suburb":"Redwood","state":"QLD","latitude":"-27.5648","longitude":"151.9791"},{"postcode":"4350","suburb":"Finnie","state":"QLD","latitude":"-27.6167","longitude":"151.9"},{"postcode":"4352","suburb":"Gowrie Junction","state":"QLD","latitude":"-27.4833","longitude":"151.8833"},{"postcode":"4352","suburb":"Postmans Ridge","state":"QLD","latitude":"-27.5309","longitude":"152.0528"},{"postcode":"4352","suburb":"Hodgson Vale","state":"QLD","latitude":"-27.6652","longitude":"151.9325"},{"postcode":"4352","suburb":"Silver Ridge","state":"QLD","latitude":"-27.5997","longitude":"151.838"},{"postcode":"4352","suburb":"Spring Bluff","state":"QLD","latitude":"-27.4625","longitude":"151.9698"},{"postcode":"4352","suburb":"Blanchview","state":"QLD","latitude":"-27.5667","longitude":"152.0333"},{"postcode":"4352","suburb":"Highfields","state":"QLD","latitude":"-27.4634","longitude":"151.9539"},{"postcode":"4352","suburb":"Vale View","state":"QLD","latitude":"-27.6619","longitude":"151.899"},{"postcode":"4352","suburb":"Withcott","state":"QLD","latitude":"-27.5541","longitude":"152.0243"},{"postcode":"4352","suburb":"Glencoe","state":"QLD","latitude":"-27.5997","longitude":"151.838"},{"postcode":"4352","suburb":"Preston","state":"QLD","latitude":"-27.6604","longitude":"151.9866"},{"postcode":"4352","suburb":"Woolmer","state":"QLD","latitude":"-27.45","longitude":"151.9167"},{"postcode":"4352","suburb":"Wyreema","state":"QLD","latitude":"-27.6558","longitude":"151.8553"},{"postcode":"4352","suburb":"Birnam","state":"QLD","latitude":"-27.4833","longitude":"151.9167"},{"postcode":"4352","suburb":"Cawdor","state":"QLD","latitude":"-27.4667","longitude":"151.9"},{"postcode":"4358","suburb":"Vale View","state":"QLD","latitude":"-27.6619","longitude":"151.899"}]